IRIDIUM 64 [+]          
1 25287U 98021C   17072.50388187 -.00000048  00000-0 -24188-4 0  9992
2 25287  86.3920 263.9316 0001990  91.8365 268.3058 14.34215339991281
IRIDIUM 65 [+]          
1 25288U 98021D   17072.51022657 -.00000057  00000-0 -27273-4 0  9999
2 25288  86.3918 263.8341 0001839  83.7674 276.3731 14.34215229991309
IRIDIUM 66 [+]          
1 25289U 98021E   17072.51656756 -.00000056  00000-0 -27213-4 0  9996
2 25289  86.3918 263.7355 0001950  83.7706 276.3712 14.34215324991297
IRIDIUM 67 [+]          
1 25290U 98021F   17072.59267916  .00000014  00000-0 -20079-5 0  9999
2 25290  86.3917 263.8386 0002064  89.4631 270.6801 14.34215701991329
IRIDIUM 68 [+]          
1 25291U 98021G   17072.52923187 -.00000046  00000-0 -23435-4 0  9996
2 25291  86.3920 263.9821 0001938  87.3265 272.8153 14.34215468991287
IRIDIUM 69 [-]          
1 25319U 98026A   17072.54572930  .00000088  00000-0  22318-4 0  9993
2 25319  86.3957 285.9556 0001372 149.4250 210.7029 14.38655222989283
IRIDIUM 71 [-]          
1 25320U 98026B   17072.56353851  .00000147  00000-0  41215-4 0  9999
2 25320  86.3936 281.8813 0001103  18.4238 341.7001 14.39068672989717
IRIDIUM 70 [+]          
1 25342U 98032A   17072.56547227  .00000015  00000-0 -17210-5 0  9996
2 25342  86.3923 264.2048 0002007  86.0390 330.0872 14.34215646985393
IRIDIUM 72 [+]          
1 25343U 98032B   17072.54192968 -.00000055  00000-0 -26532-4 0  9994
2 25343  86.3919 263.8322 0001948  85.1003 275.0415 14.34215735985393
IRIDIUM 73 [-]          
1 25344U 98032C   17072.56956636  .00000117  00000-0  25432-4 0  9992
2 25344  86.4404 243.3173 0002532  76.6032 283.5454 14.49016479993709
IRIDIUM 74 [S]          
1 25345U 98032D   17072.56656164 -.00000071  00000-0 -27625-4 0  9993
2 25345  86.4434 264.2266 0006645   6.2383  49.5301 14.42443796988956
IRIDIUM 75 [+]          
1 25346U 98032E   17072.48935769  .00000016  00000-0 -11999-5 0  9992
2 25346  86.3920 264.1035 0002045  88.9406 327.2262 14.34216174985950
IRIDIUM 3 [+]           
1 25431U 98048A   17072.54481951 -.00000021  00000-0 -14681-4 0  9997
2 25431  86.3938 295.6986 0001918  78.7277 344.2387 14.34219165971909
IRIDIUM 76 [+]          
1 25432U 98048B   17072.56314956 -.00000022  00000-0 -14974-4 0  9996
2 25432  86.3934 295.4480 0002106  79.5497 339.8591 14.34218491971892
IRIDIUM 82 [+]          
1 25467U 98051A   17072.45129896  .00000008  00000-0 -42316-5 0  9998
2 25467  86.3910  62.1623 0001909  92.1480 267.9935 14.34215721972892
IRIDIUM 81 [+]          
1 25468U 98051B   17072.51471024  .00000080  00000-0  21498-4 0  9995
2 25468  86.3934  61.7725 0002349  90.1565 269.9900 14.34214942969128
IRIDIUM 80 [+]          
1 25469U 98051C   17072.52384001  .00000036  00000-0  57319-5 0  9998
2 25469  86.3938  62.0523 0002377  90.5609  55.1659 14.34216182969121
IRIDIUM 77 [+]          
1 25471U 98051E   17072.53004410  .00000040  00000-0  70693-5 0  9990
2 25471  86.3929  61.6259 0002253  85.9123  59.1226 14.34216156974320
IRIDIUM 2 [-]           
1 25527U 98066A   17072.56941539  .00001260  00000-0  63132-4 0  9997
2 25527  85.5265  88.6891 0011832  84.0095 276.2492 15.16250958  3383
IRIDIUM 86 [+]          
1 25528U 98066B   17072.39083178  .00000111  00000-0  32619-4 0  9995
2 25528  86.3976  29.8422 0002107  81.3537 278.7897 14.34216722965636
IRIDIUM 84 [+]          
1 25530U 98066D   17072.49232597  .00000110  00000-0  32142-4 0  9990
2 25530  86.3978  29.9631 0002269  85.0246 275.1209 14.34216747963285
IRIDIUM 83 [+]          
1 25531U 98066E   17072.52401805  .00000107  00000-0  31248-4 0  9997
2 25531  86.3981  30.0712 0002254  86.7570 273.3883 14.34217156960645
IRIDIUM 20 [+]          
1 25577U 98074A   17072.51360500  .00000000  00000-0 -70491-5 0  9998
2 25577  86.3934 295.3911 0001947  82.0039 278.1378 14.34218500954725
IRIDIUM 11 [+]          
1 25578U 98074B   17072.60690587  .00000032  00000-0  41849-5 0  9999
2 25578  86.3931 295.5549 0001956  87.8370 328.2239 14.34218863963706
IRIDIUM 14 [+]          
1 25777U 99032A   17072.49753846 -.00000047  00000-0 -23959-4 0  9999
2 25777  86.3920 263.9318 0001873  82.5369 277.6040 14.34215510940962
IRIDIUM 21 [+]          
1 25778U 99032B   17072.53558931 -.00000052  00000-0 -25621-4 0  9997
2 25778  86.3920 263.9360 0002121  85.9355 274.2083 14.34215781934401
IRIDIUM 91 [+]          
1 27372U 02005A   17072.24731032  .00000167  00000-0  52716-4 0  9996
2 27372  86.3381 327.3450 0001823  77.1879  36.4111 14.34223076797875
IRIDIUM 90 [S]          
1 27373U 02005B   17072.49272656  .00000114  00000-0  27965-4 0  9996
2 27373  86.4491  30.0652 0002282  81.8246 278.3213 14.42944246797554
IRIDIUM 94 [+]          
1 27374U 02005C   17072.61835256  .00000084  00000-0  22936-4 0  9991
2 27374  86.3934 295.6779 0002409  69.2896 307.6599 14.34220045802259
IRIDIUM 95 [+]          
1 27375U 02005D   17072.47267416  .00000162  00000-0  50674-4 0  9990
2 27375  86.3754 327.4135 0002131  81.5587 278.5850 14.34223988797197
IRIDIUM 96 [+]          
1 27376U 02005E   17072.45078436  .00000177  00000-0  56162-4 0  9995
2 27376  86.4039 359.2079 0003416  85.7776 274.3810 14.34211997802394
IRIDIUM 97 [+]          
1 27450U 02031A   17072.34929773  .00000184  00000-0  58630-4 0  9994
2 27450  86.4007 358.9615 0002152  89.6671 270.4772 14.34222081776498
IRIDIUM 98 [+]          
1 27451U 02031B   17072.57319508  .00000044  00000-0  86315-5 0  9996
2 27451  86.3929  62.1817 0002275  91.2245  47.3550 14.34216625777595
